BEIDOU-3 M13-C32
1 43622U 18072A   23124.05118734  .00000046  00000+0  00000+0 0  9994
2 43622  55.6867 100.5931 0009178 292.1839  70.6381  1.86231563 31424
